{
    "links": {
        "self": "http://www.neowsapp.com/rest/v1/neo/3836197?api_key=iIulBulltgU6a56xZRHN4H3l9WmuAYTsLGpBGhQ2"
    },
    "id": "3836197",
    "neo_reference_id": "3836197",
    "name": "(2018 VU7)",
    "designation": "2018 VU7",
    "nasa_jpl_url": "http://ssd.jpl.nasa.gov/sbdb.cgi?sstr=3836197",
    "absolute_magnitude_h": 27.2,
    "estimated_diameter": {
        "kilometers": {
            "estimated_diameter_min": 0.0096506147,
            "estimated_diameter_max": 0.0215794305
        },
        "meters": {
            "estimated_diameter_min": 9.6506146958,
            "estimated_diameter_max": 21.5794304844
        },
        "miles": {
            "estimated_diameter_min": 0.0059966121,
            "estimated_diameter_max": 0.0134088323
        },
        "feet": {
            "estimated_diameter_min": 31.6621227185,
            "estimated_diameter_max": 70.7986587106
        }
    },
    "is_potentially_hazardous_asteroid": false,
    "close_approach_data": [
        {
            "close_approach_date": "2018-11-13",
            "close_approach_date_full": "2018-Nov-13 23:22",
            "epoch_date_close_approach": 1542151320000,
            "relative_velocity": {
                "kilometers_per_second": "9.3808511939",
                "kilometers_per_hour": "33771.0642980471",
                "miles_per_hour": "20984.0260356393"
            },
            "miss_distance": {
                "astronomical": "0.0164872845",
                "lunar": "6.4135536705",
                "kilometers": "2466462.643284015",
                "miles": "1532588.819448807"
            },
            "orbiting_body": "Earth"
        },
        {
            "close_approach_date": "2125-10-16",
            "close_approach_date_full": "2125-Oct-16 20:46",
            "epoch_date_close_approach": 4916321160000,
            "relative_velocity": {
                "kilometers_per_second": "18.9520274428",
                "kilometers_per_hour": "68227.298793976",
                "miles_per_hour": "42393.7901867347"
            },
            "miss_distance": {
                "astronomical": "0.3176420014",
                "lunar": "123.5627385446",
                "kilometers": "47518566.831977018",
                "miles": "29526668.2595901284"
            },
            "orbiting_body": "Earth"
        }
    ],
    "orbital_data": {
        "orbit_id": "1",
        "orbit_determination_date": "2018-11-12 09:42:07",
        "first_observation_date": "2018-11-10",
        "last_observation_date": "2018-11-12",
        "data_arc_in_days": 2,
        "observations_used": 27,
        "orbit_uncertainty": "8",
        "minimum_orbit_intersection": ".0113371",
        "jupiter_tisserand_invariant": "3.218",
        "epoch_osculation": "2458433.5",
        "eccentricity": ".6056947740495715",
        "semi_major_axis": "2.444193923077308",
        "inclination": "2.759110179606278",
        "ascending_node_longitude": "221.8654507336743",
        "orbital_period": "1395.731618071888",
        "perihelion_distance": ".9637584371056623",
        "perihelion_argument": "215.5862281219788",
        "aphelion_distance": "3.924629409048954",
        "perihelion_time": "2458456.433291495457",
        "mean_anomaly": "354.0848334798279",
        "mean_motion": ".25792924322895",
        "equinox": "J2000",
        "orbit_class": {
            "orbit_class_type": "APO",
            "orbit_class_description": "Near-Earth asteroid orbits which cross the Earth’s orbit similar to that of 1862 Apollo",
            "orbit_class_range": "a (semi-major axis) > 1.0 AU; q (perihelion) < 1.017 AU"
        }
    },
    "is_sentry_object": false
}